{
  "type": "FeatureCollection",
  "features": [
    {
      "type": "Feature",
      "properties": {
        "norad_id": 59600,
        "name": "GSAT0227 (GALILEO 30)",
        "group": "galileo",
        "lat": -54.976710070463035,
        "lon": 12.86946913592612,
        "alt_km": 23235.55234366923,
        "timestamp": "2025-12-19T22:41:52.654773+00:00",
        "meta_object_name": "GSAT0227 (GALILEO 30)",
        "meta_object_id": "2024-079C",
        "meta_epoch": "2025-12-19T12:12:51.636672",
        "meta_mean_motion": 1.70474897,
        "meta_eccentricity": 0.0002924,
        "meta_inclination": 55.0006,
        "meta_ra_of_asc_node": 106.105,
        "meta_arg_of_pericenter": 116.8359,
        "meta_mean_anomaly": 243.1562,
        "meta_ephemeris_type": 0,
        "meta_classification_type": "U",
        "meta_norad_cat_id": 59600,
        "meta_element_set_no": 999,
        "meta_rev_at_epoch": 1030,
        "meta_bstar": 0,
        "meta_mean_motion_dot": -6e-08,
        "meta_mean_motion_ddot": 0,
        "tle_line1": "1 59600U 24079C   25353.50893098 -.00000006  00000+0  00000+0 0  9997",
        "tle_line2": "2 59600  55.0006 106.1050 0002924 116.8359 243.1562  1.70474897 10305"
      },
      "geometry": {
        "type": "Point",
        "coordinates": [
          12.86946913592612,
          -54.976710070463035
        ]
      }
    },
    {
      "type": "Feature",
      "properties": {
        "norad_id": 61182,
        "name": "GSAT0232 (GALILEO 32)",
        "group": "galileo",
        "lat": 53.33092701905512,
        "lon": -22.531933102031463,
        "alt_km": 23217.644375535725,
        "timestamp": "2025-12-19T22:41:52.654785+00:00",
        "meta_object_name": "GSAT0232 (GALILEO 32)",
        "meta_object_id": "2024-167A",
        "meta_epoch": "2025-12-18T08:17:33.319392",
        "meta_mean_motion": 1.70473695,
        "meta_eccentricity": 0.0001893,
        "meta_inclination": 55.239,
        "meta_ra_of_asc_node": 226.2771,
        "meta_arg_of_pericenter": 209.3432,
        "meta_mean_anomaly": 351.1487,
        "meta_ephemeris_type": 0,
        "meta_classification_type": "U",
        "meta_norad_cat_id": 61182,
        "meta_element_set_no": 999,
        "meta_rev_at_epoch": 779,
        "meta_bstar": 0,
        "meta_mean_motion_dot": 6.2e-07,
        "meta_mean_motion_ddot": 0,
        "tle_line1": "1 61182U 24167A   25352.34552453  .00000062  00000+0  00000+0 0  9992",
        "tle_line2": "2 61182  55.2390 226.2771 0001893 209.3432 351.1487  1.70473695  7799"
      },
      "geometry": {
        "type": "Point",
        "coordinates": [
          -22.531933102031463,
          53.33092701905512
        ]
      }
    },
    {
      "type": "Feature",
      "properties": {
        "norad_id": 61183,
        "name": "GSAT0226 (GALILEO 31)",
        "group": "galileo",
        "lat": -28.257273388263336,
        "lon": 68.15723445884622,
        "alt_km": 23226.855233335835,
        "timestamp": "2025-12-19T22:41:52.654796+00:00",
        "meta_object_name": "GSAT0226 (GALILEO 31)",
        "meta_object_id": "2024-167B",
        "meta_epoch": "2025-12-19T08:05:33.318816",
        "meta_mean_motion": 1.70473764,
        "meta_eccentricity": 0.0001078,
        "meta_inclination": 55.2375,
        "meta_ra_of_asc_node": 226.2553,
        "meta_arg_of_pericenter": 106.8002,
        "meta_mean_anomaly": 94.9592,
        "meta_ephemeris_type": 0,
        "meta_classification_type": "U",
        "meta_norad_cat_id": 61183,
        "meta_element_set_no": 999,
        "meta_rev_at_epoch": 778,
        "meta_bstar": 0,
        "meta_mean_motion_dot": 6.7e-07,
        "meta_mean_motion_ddot": 0,
        "tle_line1": "1 61183U 24167B   25353.33719119  .00000067  00000+0  00000+0 0  9992",
        "tle_line2": "2 61183  55.2375 226.2553 0001078 106.8002  94.9592  1.70473764  7785"
      },
      "geometry": {
        "type": "Point",
        "coordinates": [
          68.15723445884622,
          -28.257273388263336
        ]
      }
    },
    {
      "type": "Feature",
      "properties": {
        "norad_id": 67160,
        "name": "GALILEO A",
        "group": "galileo",
        "lat": 31.6097347730863,
        "lon": 133.4823635123767,
        "alt_km": 22963.614854910345,
        "timestamp": "2025-12-19T22:41:52.654808+00:00",
        "meta_object_name": "GALILEO A",
        "meta_object_id": "2025-302A",
        "meta_epoch": "2025-12-18T03:30:19.484640",
        "meta_mean_motion": 1.72906186,
        "meta_eccentricity": 0.0008424,
        "meta_inclination": 54.2406,
        "meta_ra_of_asc_node": 107.2544,
        "meta_arg_of_pericenter": 237.6458,
        "meta_mean_anomaly": 122.2316,
        "meta_ephemeris_type": 0,
        "meta_classification_type": "U",
        "meta_norad_cat_id": 67160,
        "meta_element_set_no": 999,
        "meta_rev_at_epoch": 2,
        "meta_bstar": 0,
        "meta_mean_motion_dot": -7e-08,
        "meta_mean_motion_ddot": 0,
        "tle_line1": "1 67160U 25302A   25352.14605885 -.00000007  00000+0  00000+0 0  9992",
        "tle_line2": "2 67160  54.2406 107.2544 0008424 237.6458 122.2316  1.72906186    28"
      },
      "geometry": {
        "type": "Point",
        "coordinates": [
          133.4823635123767,
          31.6097347730863
        ]
      }
    },
    {
      "type": "Feature",
      "properties": {
        "norad_id": 67161,
        "name": "GALILEO B",
        "group": "galileo",
        "lat": 32.06180350576748,
        "lon": 133.97243133860678,
        "alt_km": 22943.66068475987,
        "timestamp": "2025-12-19T22:41:52.654820+00:00",
        "meta_object_name": "GALILEO B",
        "meta_object_id": "2025-302B",
        "meta_epoch": "2025-12-19T07:14:53.290752",
        "meta_mean_motion": 1.72972192,
        "meta_eccentricity": 0.0004587,
        "meta_inclination": 54.2272,
        "meta_ra_of_asc_node": 107.1916,
        "meta_arg_of_pericenter": 255.0301,
        "meta_mean_anomaly": 104.8802,
        "meta_ephemeris_type": 0,
        "meta_classification_type": "U",
        "meta_norad_cat_id": 67161,
        "meta_element_set_no": 999,
        "meta_rev_at_epoch": 5,
        "meta_bstar": 0,
        "meta_mean_motion_dot": -5e-08,
        "meta_mean_motion_ddot": 0,
        "tle_line1": "1 67161U 25302B   25353.30200568 -.00000005  00000+0  00000+0 0  9999",
        "tle_line2": "2 67161  54.2272 107.1916 0004587 255.0301 104.8802  1.72972192    58"
      },
      "geometry": {
        "type": "Point",
        "coordinates": [
          133.97243133860678,
          32.06180350576748
        ]
      }
    }
  ]
}